[
{"nom": "CH GÉNÉRAL DE SOISSONS - USP", "type": "USP", "adresse": "46 avenue du Général de Gaulle", "code_postal": "02209", "commune": "SOISSONS CEDEX", "telephone": "03 23 75 71 29", "departement": "Aisne", "nb_lits": ["A REMPLIR"], "zone_libre": null, "site_internet": "A REMPLIR"},
{"nom": "CH DU NOUVION EN THIERARCHE - LISP", "type": "LISP", "adresse": "40 rue André Ridders", "code_postal": "02170", "commune": "LE NOUVION EN THIERARCHE", "telephone": "03 23 97 56 33", "departement": "Aisne", "nb_lits": ["A REMPLIR"], "zone_libre": "4 lits Identifiés", "site_internet": "A REMPLIR"},
{"nom": "CH LAON - LISP", "type": "LISP", "adresse": "33 rue Marcellin Berthelot", "code_postal": "02001", "commune": "LAON CEDEX", "telephone": "03 23 24 33 33", "departement": "Aisne", "nb_lits": ["A REMPLIR"], "zone_libre": "4 lits identifiés", "site_internet": "A REMPLIR"},
{"nom": "CH DE MONTPENSIER - USP", "type": "USP", "adresse": "14 rue de l'hôpital", "code_postal": "01600", "commune": "TREVOUX", "telephone": "04 74 10 51 21", "departement": "Ain", "nb_lits": ["A REMPLIR"], "zone_libre": "Rayon d'action sur le 69 de 40 km.", "site_internet": "A REMPLIR"},
{"nom": "CH PUBLIC D'HAUTEVILLE - LISP", "type": "LISP", "adresse": "Avenue Felix Mangini", "code_postal": "01110", "commune": "HAUTEVILLE-LOMPNES", "telephone": "04 74 40 81 61", "departement": "Ain", "nb_lits": ["A REMPLIR"], "zone_libre": "10 lits identifiés en soins palliatifs MCO\r\n4 lits de SSR polyvalent à orientation palliative", "site_internet": "A REMPLIR"},
{"nom": "CLINIQUE MÉDICALE PLEIN CIEL - LISP", "type": "LISP", "adresse": "122 avenue du Docteur Maurice Donat", "code_postal": "06254", "commune": "MOUGINS CEDEX", "telephone": "04 97 16 68 48", "departement": "Alpes-Maritimes", "nb_lits": ["A REMPLIR"], "zone_libre": null, "site_internet": "A REMPLIR"},
{"nom": "CHU DE NICE - USP", "type": "USP", "adresse": "CHU de Nice", "code_postal": "06000", "commune": "NICE", "telephone": "04 92 03 62 86", "departement": "Alpes-Maritimes", "nb_lits": ["A REMPLIR"], "zone_libre": "USP de 12 lits", "site_internet": "A REMPLIR"},
{"nom": "CHI  DES ALPES DU SUD - USP", "type": "USP", "adresse": "1 place Auguste Muret", "code_postal": "05007", "commune": "GAP", "telephone": "04 92 40 69 20", "departement": "Hautes-Alpes", "nb_lits": ["A REMPLIR"], "zone_libre": null, "site_internet": "A REMPLIR"},
{"nom": "CH GÉRONTOLOGIQUE LA FERE - USP", "type": "USP", "adresse": "2 avenue Dupuis", "code_postal": "02800", "commune": "LA FERE", "telephone": "03 23 56 67 00", "departement": "Aisne", "nb_lits": ["A REMPLIR"], "zone_libre": "Présence de bénévoles de JALMALV.", "site_internet": "A REMPLIR"},
{"nom": "HÔPITAL VILLIERS SAINT-DENIS", "type": "LISP", "adresse": "41 rue Victor et Louise Monfort", "code_postal": "02310", "commune": "VILLIERS SAINT-DENIS", "telephone": "03 23 70 74 77", "departement": "Aisne", "nb_lits": ["A REMPLIR"], "zone_libre": "6 lits identifiés", "site_internet": "A REMPLIR"}
]