[
{"nom": "CH DU NOUVION EN THIERARCHE - LISP", "type": "LISP", "adresse": "40 rue André Ridders", "code_postal": "02170", "commune": "LE NOUVION EN THIERARCHE", "telephone": "03 23 97 56 33", "departement": "Aisne", "nb_lits": ["A REMPLIR"], "zone_libre": "4 lits Identifiés", "site_internet": "A REMPLIR"},
{"nom": "CH LAON - LISP", "type": "LISP", "adresse": "33 rue Marcellin Berthelot", "code_postal": "02001", "commune": "LAON CEDEX", "telephone": "03 23 24 33 33", "departement": "Aisne", "nb_lits": ["A REMPLIR"], "zone_libre": "4 lits identifiés", "site_internet": "A REMPLIR"},
{"nom": "CH DE MONTPENSIER - USP", "type": "USP", "adresse": "14 rue de l'hôpital", "code_postal": "01600", "commune": "TREVOUX", "telephone": "04 74 10 51 21", "departement": "Ain", "nb_lits": ["A REMPLIR"], "zone_libre": "Rayon d'action sur le 69 de 40 km.", "site_internet": "A REMPLIR"},
{"nom": "CHU DE NICE - USP", "type": "USP", "adresse": "CHU de Nice", "code_postal": "06000", "commune": "NICE", "telephone": "04 92 03 62 86", "departement": "Alpes-Maritimes", "nb_lits": ["A REMPLIR"], "zone_libre": "USP de 12 lits", "site_internet": "A REMPLIR"},
{"nom": "CLINIQUE MÉDICALE PLEIN CIEL - LISP", "type": "LISP", "adresse": "122 avenue du Docteur Maurice Donat", "code_postal": "06254", "commune": "MOUGINS CEDEX", "telephone": "04 97 16 68 48", "departement": "Alpes-Maritimes", "nb_lits": ["A REMPLIR"], "zone_libre": null, "site_internet": "A REMPLIR"},
{"nom": "HÔPITAL VILLIERS SAINT-DENIS", "type": "LISP", "adresse": "41 rue Victor et Louise Monfort", "code_postal": "02310", "commune": "VILLIERS SAINT-DENIS", "telephone": "03 23 70 74 77", "departement": "Aisne", "nb_lits": ["A REMPLIR"], "zone_libre": "6 lits identifiés", "site_internet": "A REMPLIR"},
{"nom": "CH PUBLIC D'HAUTEVILLE - LISP", "type": "LISP", "adresse": "Avenue Felix Mangini", "code_postal": "01110", "commune": "HAUTEVILLE-LOMPNES", "telephone": "04 74 40 81 61", "departement": "Ain", "nb_lits": ["A REMPLIR"], "zone_libre": "10 lits identifiés en soins palliatifs MCO\r\n4 lits de SSR polyvalent à orientation palliative", "site_internet": "A REMPLIR"},
{"nom": "CH GÉNÉRAL DE SOISSONS - USP", "type": "USP", "adresse": "46 avenue du Général de Gaulle", "code_postal": "02209", "commune": "SOISSONS CEDEX", "telephone": "03 23 75 71 29", "departement": "Aisne", "nb_lits": ["A REMPLIR"], "zone_libre": null, "site_internet": "A REMPLIR"},
{"nom": "CHI  DES ALPES DU SUD - USP", "type": "USP", "adresse": "1 place Auguste Muret", "code_postal": "05007", "commune": "GAP", "telephone": "04 92 40 69 20", "departement": "Hautes-Alpes", "nb_lits": ["A REMPLIR"], "zone_libre": null, "site_internet": "A REMPLIR"},
{"nom": "CH DES VALS D'ARDÈCHE - USP", "type": "USP", "adresse": "2 avenue Pasteur", "code_postal": "07007", "commune": "PRIVAS CEDEX", "telephone": "04 75 20 21 23", "departement": "Ardèche", "nb_lits": ["A REMPLIR"], "zone_libre": "Service constitué d'une USP de 6 lits  et 4 lits d'oncologie\r\n", "site_internet": "A REMPLIR"},
{"nom": "CH TROYES - USP", "type": "USP", "adresse": "37 rue de la Marne", "code_postal": "10000", "commune": "TROYES", "telephone": "03 25 45 85 15", "departement": "Aube", "nb_lits": ["A REMPLIR"], "zone_libre": null, "site_internet": "A REMPLIR"},
{"nom": "CH DU VAL D'ARIÈGE - LISP", "type": "LISP", "adresse": "Chemin du Barrau", "code_postal": "09017", "commune": "FOIX CEDEX", "telephone": "05 61 03 33 68", "departement": "Ariège", "nb_lits": ["A REMPLIR"], "zone_libre": "Travail en lien avec l'EMSP du CH Val d'Ariège.", "site_internet": "A REMPLIR"},
{"nom": "HÔPITAL LOCAL DONA VIERNA - EMSP", "type": "LISP", "adresse": "9 rue Paul Semard", "code_postal": "07700", "commune": "BOURG ST ANDEOL", "telephone": "04 75 54 50 61", "departement": "Ardèche", "nb_lits": ["A REMPLIR"], "zone_libre": "Capacité d'accueil: 30 lits en SSR  et en SP.\r\n présence de bénévoles. Rayon d'intervention en Ardèche mais accueil élargi.", "site_internet": "A REMPLIR"},
{"nom": "CH GÉRONTOLOGIQUE LA FERE - USP", "type": "USP", "adresse": "2 avenue Dupuis", "code_postal": "02800", "commune": "LA FERE", "telephone": "03 23 56 67 00", "departement": "Aisne", "nb_lits": ["A REMPLIR"], "zone_libre": "Présence de bénévoles de JALMALV.", "site_internet": "A REMPLIR"},
{"nom": "CH ANTIBES-JUAN LES PINS - USP", "type": "USP", "adresse": "107 route de Nice", "code_postal": "06606", "commune": "ANTIBES CEDEX", "telephone": "04 97 24 82 99", "departement": "Alpes-Maritimes", "nb_lits": ["A REMPLIR"], "zone_libre": null, "site_internet": "A REMPLIR"},
{"nom": "LA MAISON DE GARDANNE - USP", "type": "USP", "adresse": "1100 Route blanche", "code_postal": "13120", "commune": "GARDANNE", "telephone": "04 42 65 73 60", "departement": "Bouches-du-Rhône", "nb_lits": ["A REMPLIR"], "zone_libre": "Accueil de jour : coordinatrice Michelle Fontana", "site_internet": "A REMPLIR"},
{"nom": "CENTRE ROGER DUQUESNE - LISP", "type": "LISP", "adresse": "3 chemin de la vierge noire", "code_postal": "13097", "commune": "AIX EN PROVENCE CEDEX 02", "telephone": "04 42  33 50 80", "departement": "Bouches-du-Rhône", "nb_lits": ["A REMPLIR"], "zone_libre": "Les demandes peuvent se faire par le Répertoire Opérationnel de Ressources PACA", "site_internet": "A REMPLIR"},
{"nom": "CHI AIX PERTUIS - LISP", "type": "LISP", "adresse": "3 chemin de la Vierge Noire", "code_postal": "13097", "commune": "AIX EN PROVENCE CEDEX 2", "telephone": "04 42 33 50 80", "departement": "Bouches-du-Rhône", "nb_lits": ["A REMPLIR"], "zone_libre": null, "site_internet": "A REMPLIR"},
{"nom": "POLYCLINIQUE DU PARC", "type": "LISP", "adresse": "20 avenue Capitaine G. Guynemer", "code_postal": "14052", "commune": "CAEN CEDEX 04", "telephone": "02 31 82 81 16", "departement": "Calvados", "nb_lits": ["A REMPLIR"], "zone_libre": null, "site_internet": "A REMPLIR"},
{"nom": "GH AUBE MARNE - USP", "type": "USP", "adresse": "Rue Paul Vaillant Couturier", "code_postal": "10115", "commune": "ROMILLY SUR SEINE", "telephone": "03 25 21 96 19", "departement": "Aube", "nb_lits": ["A REMPLIR"], "zone_libre": "présence de bénévoles D'EVA (Ensemble Vie Accompagnée)", "site_internet": "A REMPLIR"},
{"nom": "UNITÉ RÉGIONALE DE SP MAURICE ABIVEN - USP", "type": "USP", "adresse": "1020 rue des sources", "code_postal": "14200", "commune": "HEROUVILLE SAINT CLAIR", "telephone": "02 31 46 24 73", "departement": "Calvados", "nb_lits": ["A REMPLIR"], "zone_libre": "Unité qui dépend de la clinique privée de la Miséricorde de Caen (cf.site internet).", "site_internet": "A REMPLIR"},
{"nom": "CHU CAEN - LISP", "type": "LISP", "adresse": "Avenue de la côte de Nacre", "code_postal": "14033", "commune": "CAEN CEDEX", "telephone": "02 31 06 45 83", "departement": "Calvados", "nb_lits": ["A REMPLIR"], "zone_libre": "4 à  5 lits identifiés pour des patients de la région.", "site_internet": "A REMPLIR"},
{"nom": "POLYCLINIQUE MONTRÉAL - USP", "type": "USP", "adresse": "Route de Bram", "code_postal": "11890", "commune": "CARCASSONNE CEDEX 9", "telephone": "04 68 11 18 88", "departement": "Aude", "nb_lits": ["A REMPLIR"], "zone_libre": "10 LITS", "site_internet": "A REMPLIR"},
{"nom": "CH SALON DE PROVENCE - USP", "type": "USP", "adresse": "207 avenue Julien Fabre", "code_postal": "13658", "commune": "SALON DE PROVENCE CEDEX", "telephone": "04 90 44 91 21", "departement": "Bouches-du-Rhône", "nb_lits": ["A REMPLIR"], "zone_libre": "Stagiaires en DU de SP ou de douleur  inf", "site_internet": "A REMPLIR"},
{"nom": "HÔPITAL DE LA TIMONE - USP", "type": "USP", "adresse": "264 rue Saint Pierre", "code_postal": "13385", "commune": "MARSEILLE CEDEX 5", "telephone": "04 91 38 57 08", "departement": "Bouches-du-Rhône", "nb_lits": ["A REMPLIR"], "zone_libre": null, "site_internet": "A REMPLIR"},
{"nom": "Hôpitaux de Grand Cognac USP", "type": "USP", "adresse": "Place de l'Eglise", "code_postal": "16120", "commune": "CHATEAUNEUF SUR CHARENTE", "telephone": "05 45 80 15 15", "departement": "Charente", "nb_lits": ["A REMPLIR"], "zone_libre": "ANCIENNEMENT USP CRÉE EN 1988", "site_internet": "A REMPLIR"},
{"nom": "CENTRE CLINICAL - LISP", "type": "LISP", "adresse": "2 chemin de Frégeneuil", "code_postal": "16025", "commune": "ANGOULEME", "telephone": "05 45 69 68 50", "departement": "Charente", "nb_lits": ["A REMPLIR"], "zone_libre": "4 lits dédiés\r\nRayon d'action sur le 24 est de 30 km.", "site_internet": "A REMPLIR"},
{"nom": "HÔPITAL SAINT-JOSEPH - USP", "type": "USP", "adresse": "26 boulevard de Louvain", "code_postal": "13285", "commune": "MARSEILLE CEDEX 08", "telephone": "04 91 80 67 63", "departement": "Bouches-du-Rhône", "nb_lits": ["A REMPLIR"], "zone_libre": null, "site_internet": "A REMPLIR"},
{"nom": "CLINIQUE SAINTE ELISABETH - USP", "type": "USP", "adresse": "72 rue Chape", "code_postal": "13248", "commune": "MARSEILLE CEDEX 04", "telephone": "04 91 18 90 37", "departement": "Bouches-du-Rhône", "nb_lits": ["A REMPLIR"], "zone_libre": null, "site_internet": "A REMPLIR"},
{"nom": "CENTRE GÉRONTOLOGIE ST THOMAS DE VILLENEUVE  - USP", "type": "USP", "adresse": "40 cours des Arts et Métiers", "code_postal": "13626", "commune": "AIX-EN-PROVENCE CEDEX 1", "telephone": "04 42 17 11 11", "departement": "Bouches-du-Rhône", "nb_lits": ["A REMPLIR"], "zone_libre": null, "site_internet": "A REMPLIR"},
{"nom": "CH  RENÉ PLEVEN - LISP", "type": "LISP", "adresse": "Rue Chateaubriand", "code_postal": "22100", "commune": "DINAN", "telephone": "02 96 85 72 85", "departement": "Côtes-d'Armor", "nb_lits": ["A REMPLIR"], "zone_libre": "Equipe composée d'un psychologue, d'un kinésithérapeute,d'une diététicienne, d'un ergothérapeute, d'une socioesthéticienne, de bénévoles d'accompagnement.", "site_internet": "A REMPLIR"},
{"nom": "POLYCLINIQUE FRANCHEVILLE", "type": "LISP", "adresse": "34 boulevard de Vésone", "code_postal": "24019", "commune": "PERIGUEUX CEDEX", "telephone": "05 53 02 11 11", "departement": "Dordogne", "nb_lits": ["A REMPLIR"], "zone_libre": "6 lits identifiés; 3 IDE; un medecin formés aux SP", "site_internet": "A REMPLIR"},
{"nom": "CHU DIJON - USP - LA MIRANDIERE", "type": "USP", "adresse": "1 rue de la Gouge", "code_postal": "21800", "commune": "QUETIGNY", "telephone": "03 80 29 56 56", "departement": "Côte-d'Or", "nb_lits": ["A REMPLIR"], "zone_libre": null, "site_internet": "A REMPLIR"},
{"nom": "CENTRE MÉDICAL LE CHÂTEAU DE BASSY - LISP", "type": "LISP", "adresse": "", "code_postal": "24400", "commune": "SAINT MEDARD DE MUSSIDAN", "telephone": "05 53 80 88 37", "departement": "Dordogne", "nb_lits": ["A REMPLIR"], "zone_libre": null, "site_internet": "A REMPLIR"},
{"nom": "CHU JEAN MINJOZ - USP", "type": "USP", "adresse": "3 boulevard Fleming", "code_postal": "25030", "commune": "BESANCON CEDEX", "telephone": "03 81 66 85 18", "departement": "Doubs", "nb_lits": ["A REMPLIR"], "zone_libre": "Présence de bénévoles d'accompagnement (les amis de soins palliatifs). \r\nStagiaires : psychologues et infirmières", "site_internet": "A REMPLIR"},
{"nom": "CH JEAN LECLAIRE - LISP", "type": "LISP", "adresse": "", "code_postal": "24200", "commune": "SARLAT LA CANEDA", "telephone": "05 53 31 75 75", "departement": "Dordogne", "nb_lits": ["A REMPLIR"], "zone_libre": "3 à  5 lits en chambres indidividuelles pour des malades en soins palliatifs", "site_internet": "A REMPLIR"},
{"nom": "CLINIQUE DU GOLFE - LISP", "type": "LISP", "adresse": "28 boulevard Rossini", "code_postal": "20000", "commune": "AJACCIO", "telephone": "04 95 51 93 63", "departement": "Corse-du-Sud", "nb_lits": ["A REMPLIR"], "zone_libre": "2 lits identifiés.", "site_internet": "A REMPLIR"},
{"nom": "CLINIQUE ARMORICAINE DE RADIOLOGIE - LISP", "type": "LISP", "adresse": "21 rue du vieux séminaire", "code_postal": "22000", "commune": "SAINT BRIEUC", "telephone": "02 96 75 22 20", "departement": "Côtes-d'Armor", "nb_lits": ["A REMPLIR"], "zone_libre": "8 lits identifiés", "site_internet": "A REMPLIR"},
{"nom": "CHU PERIGUEUX - ESPACE USP", "type": "USP", "adresse": "80 avenue Georges Pompidou", "code_postal": "24000", "commune": "PERIGUEUX CEDEX", "telephone": "05 53 45 30 28", "departement": "Dordogne", "nb_lits": ["A REMPLIR"], "zone_libre": null, "site_internet": "A REMPLIR"},
{"nom": "HÔPITAUX DU SUD CHARENTE", "type": "LISP", "adresse": "Château Saint Bernard", "code_postal": "16360", "commune": "TOUVERAC", "telephone": "", "departement": "Charente", "nb_lits": ["A REMPLIR"], "zone_libre": null, "site_internet": "A REMPLIR"},
{"nom": "CLINIQUE KERLENA - LISP", "type": "LISP", "adresse": "2 rue Victor Hugo", "code_postal": "29680", "commune": "ROSCOFF CEDEX", "telephone": "02.98.24.33.28", "departement": "Finistère", "nb_lits": ["A REMPLIR"], "zone_libre": "2 lits\n\nIntervention sur le Finistère Nord et la moitié des Côtes d'armor", "site_internet": "A REMPLIR"},
{"nom": "CHRU BREST - SITE DE GUILERS - USP", "type": "USP", "adresse": "5, rue Alexandre Lemonnier", "code_postal": "29820", "commune": "GUILERS", "telephone": "02 98 01 59 24", "departement": "Finistère", "nb_lits": ["A REMPLIR"], "zone_libre": "cette structure dépend du CHU de Brest.\r\n\r\n10 lits identifiés.", "site_internet": "A REMPLIR"},
{"nom": "CH DE LA RISLE - LISP", "type": "LISP", "adresse": "64 route de Lisieux", "code_postal": "27500", "commune": "PONT-AUDEMER", "telephone": "02 32 41 65 78", "departement": "Eure", "nb_lits": ["A REMPLIR"], "zone_libre": "1 lit dédié.", "site_internet": "A REMPLIR"},
{"nom": "CH DOUARNENEZ  MAURICE ABIVEN - USP", "type": "USP", "adresse": "85 rue Laënnec", "code_postal": "29171", "commune": "DOUARNENEZ", "telephone": "02 98 75 14 03", "departement": "Finistère", "nb_lits": ["A REMPLIR"], "zone_libre": "le Dr Cariou exerce un 1/2 temps plein au sein de l'USP", "site_internet": "A REMPLIR"},
{"nom": "CH GÉNÉRAL DE CREST - USP", "type": "USP", "adresse": "Rue Sainte Marie", "code_postal": "26400", "commune": "CREST CEDEX", "telephone": "04 75 25 37 40", "departement": "Drôme", "nb_lits": ["A REMPLIR"], "zone_libre": "Capacité d'accueil : 5 lits. présence de bénévoles d'Actes", "site_internet": "A REMPLIR"},
{"nom": "HOPITAUX DROME NORD", "type": "LISP", "adresse": "607 avenue Geneviève de Gaulle Anthonioz", "code_postal": "26100", "commune": "ROMANS SUR ISERE", "telephone": "04 75 05 75 49", "departement": "Drôme", "nb_lits": ["A REMPLIR"], "zone_libre": null, "site_internet": "A REMPLIR"},
{"nom": "CH VALENCE - USP", "type": "USP", "adresse": "179 boulevard Maréchal Juin", "code_postal": "26000", "commune": "VALENCE CEDEX 09", "telephone": "04 75 75 73 07", "departement": "Drôme", "nb_lits": ["A REMPLIR"], "zone_libre": null, "site_internet": "A REMPLIR"},
{"nom": "CLINIQUE PASTEUR-SAINT-ESPRIT - USP", "type": "USP", "adresse": "33 rue Auguste Kervern", "code_postal": "29229", "commune": "BREST CEDEX 2", "telephone": "02 98 31 30 53", "departement": "Finistère", "nb_lits": ["A REMPLIR"], "zone_libre": null, "site_internet": "A REMPLIR"},
{"nom": "HÔPITAL PRIVÉ DRÔME-ARDÈCHE", "type": "LISP", "adresse": "15 rue Jacques Delpeuch", "code_postal": "26000", "commune": "VALENCE", "telephone": "04 75 75 67 12", "departement": "Drôme", "nb_lits": ["A REMPLIR"], "zone_libre": "service medecine 4 lits identifiés; accueil de stagiaires IDE uniquement.", "site_internet": "A REMPLIR"},
{"nom": "CHU CAREMEAU - USP", "type": "USP", "adresse": "Place du Pr Debré", "code_postal": "30029", "commune": "NIMES", "telephone": "04 66 68 30 81", "departement": "Gard", "nb_lits": ["A REMPLIR"], "zone_libre": null, "site_internet": "A REMPLIR"},
{"nom": "DOMAINE DE LA CADÈNE", "type": "LISP", "adresse": "15 impasse de la Cadène", "code_postal": "31200", "commune": "TOULOUSE", "telephone": "05 61 13 73 27", "departement": "Haute-Garonne", "nb_lits": ["A REMPLIR"], "zone_libre": "Etablissement sanitaire et medicosocial, soins longue durée, EHPAD, acceuil de jour ; hébergement temporaire et définitif.", "site_internet": "A REMPLIR"},
{"nom": "CLINIQUE PASTEUR - LISP", "type": "LISP", "adresse": "45 avenue de Lombez", "code_postal": "31076", "commune": "TOULOUSE CEDEX 3", "telephone": "05 62 21 35 36", "departement": "Haute-Garonne", "nb_lits": ["A REMPLIR"], "zone_libre": "14 lits identifiés", "site_internet": "A REMPLIR"},
{"nom": "CLINIQUE MONIÉ - LISP", "type": "LISP", "adresse": "", "code_postal": "31290", "commune": "VILLEFRANCHE DE LAURAGAIS", "telephone": "05 62 71 49 63", "departement": "Haute-Garonne", "nb_lits": ["A REMPLIR"], "zone_libre": "9 lits identifiés en court séjour et 5 lits en moyen séjour", "site_internet": "A REMPLIR"},
{"nom": "CLINIQUE DE QUINT-FONSEGRIVES - LISP", "type": "LISP", "adresse": "1 place Hélène Boucher", "code_postal": "31130", "commune": "QUINT-FONSEGRIVES", "telephone": "05 61 17 24 00", "departement": "Haute-Garonne", "nb_lits": ["A REMPLIR"], "zone_libre": null, "site_internet": "A REMPLIR"},
{"nom": "HÔPITAL JOSEPH DUCUING - USP", "type": "USP", "adresse": "15 rue Varsovie", "code_postal": "31076", "commune": "TOULOUSE CEDEX 3", "telephone": "05 61 77 34 68", "departement": "Haute-Garonne", "nb_lits": ["A REMPLIR"], "zone_libre": "Directeur Catherine GARCIA ; Médecin resp. USP, Dr Ingrid PAYET ; Cadre infirmier, Caroline JACQUART", "site_internet": "A REMPLIR"},
{"nom": "CHU DE TOULOUSE - USP", "type": "USP", "adresse": "Hopital PURPAN - Pierre Paul Riquet - Hall A", "code_postal": "31059", "commune": "TOULOUSE CEDEX 09", "telephone": "05 61 77 66 30", "departement": "Haute-Garonne", "nb_lits": ["A REMPLIR"], "zone_libre": null, "site_internet": "A REMPLIR"},
{"nom": "CHU TOULOUSE - LISP", "type": "LISP", "adresse": "2 rue Viguerie", "code_postal": "31059", "commune": "TOULOUSE CEDEX 9", "telephone": "05 61 77 66 30", "departement": "Haute-Garonne", "nb_lits": ["A REMPLIR"], "zone_libre": "24 lits identifiés", "site_internet": "A REMPLIR"},
{"nom": "INSTITUT CLAUDIUS REGAUD", "type": "LISP", "adresse": "20-24 rue du pont St-Pierre", "code_postal": "31052", "commune": "TOULOUSE CEDEX", "telephone": "05 61 42 41 14", "departement": "Haute-Garonne", "nb_lits": ["A REMPLIR"], "zone_libre": "8 lits identifiés", "site_internet": "A REMPLIR"},
{"nom": "CLINIQUE DU CHÂTEAU DE VERNHES - LISP", "type": "LISP", "adresse": "", "code_postal": "31340", "commune": "BONDIGOUX", "telephone": "05 61 37 27 27", "departement": "Haute-Garonne", "nb_lits": ["A REMPLIR"], "zone_libre": "14 lits identifiés : 8 en court séjour, 6 en soins de suite", "site_internet": "A REMPLIR"},
{"nom": "CLINIQUE DE LAGARDELLE - LISP", "type": "LISP", "adresse": "468 chemin reguenade", "code_postal": "31870", "commune": "LAGARDELLE-SUR-LEZE", "telephone": "05 62 11 15 15", "departement": "Haute-Garonne", "nb_lits": ["A REMPLIR"], "zone_libre": "11 lits identifiés", "site_internet": "A REMPLIR"},
{"nom": "CLINIQUE MÉDICALE DU MAS DU ROCHET - USP", "type": "USP", "adresse": "563 chemin du Mas de Rochet", "code_postal": "34170", "commune": "CASTELNAU-LE-LEZ", "telephone": "04 67 33 10 33", "departement": "Hérault", "nb_lits": ["A REMPLIR"], "zone_libre": "Unité de 12 lits.", "site_internet": "A REMPLIR"},
{"nom": "CHU - HÔPITAL SAINT ELOI - USP", "type": "USP", "adresse": "80 avenue Augustin Fliche", "code_postal": "34295", "commune": "MONTPELLIER CEDEX 5", "telephone": "04 67 33 76 58", "departement": "Hérault", "nb_lits": ["A REMPLIR"], "zone_libre": "Unité mobile soins palliatifs (UMSP)  \r\nEn lien avec Réseau SPHERES\r\nAutres professions présentes : Kiné Ergo, Diét ", "site_internet": "A REMPLIR"},
{"nom": "CRLCC EUGÈNE MARQUIS - USP", "type": "USP", "adresse": "Avenue de la Bataille Flandres Dunkerque", "code_postal": "35042", "commune": "RENNES", "telephone": "02 99 25 31 05", "departement": "Ille-et-Vilaine", "nb_lits": ["A REMPLIR"], "zone_libre": null, "site_internet": "A REMPLIR"},
{"nom": "CH FOUGERES - USP", "type": "USP", "adresse": "133 rue de la forêt", "code_postal": "35300", "commune": "FOUGERES", "telephone": "02 99 17 74 21", "departement": "Ille-et-Vilaine", "nb_lits": ["A REMPLIR"], "zone_libre": null, "site_internet": "A REMPLIR"},
{"nom": "MAISON DE SANTÉ MARIE GALÈNE - ESPACE USP", "type": "USP", "adresse": "30 rue Kléber", "code_postal": "33200", "commune": "BORDEAUX", "telephone": "05 57 22 25 38", "departement": "Gironde", "nb_lits": ["A REMPLIR"], "zone_libre": null, "site_internet": "A REMPLIR"},
{"nom": "SSR CHÂTEAUNEUF", "type": "LISP", "adresse": "73 route de Mont de Marsan", "code_postal": "33850", "commune": "LEOGNAN", "telephone": "05 56 64 41 53", "departement": "Gironde", "nb_lits": ["A REMPLIR"], "zone_libre": "Nom du cadre de santé responsable des LISP:\nMme Annie France ROLAND (afroland.chateauneuf@ugecamaq.fr)/ Tel: 05.56.64.41.40", "site_internet": "A REMPLIR"},
{"nom": "CH SUD GIRONDE - LISP", "type": "LISP", "adresse": "", "code_postal": "33192", "commune": "LA REOLE CEDEX", "telephone": "05 56 61 52 56", "departement": "Gironde", "nb_lits": ["A REMPLIR"], "zone_libre": "LISP de Territoire Sud Gironde", "site_internet": "A REMPLIR"},
{"nom": "INSTITUT BERGONIÉ", "type": "LISP", "adresse": "229 cours de l'Argonne", "code_postal": "33076", "commune": "BORDEAUX", "telephone": "05 56 33 33 33", "departement": "Gironde", "nb_lits": ["A REMPLIR"], "zone_libre": null, "site_internet": "A REMPLIR"},
{"nom": "CHU SAINT ANDRÉ - ESPACE USP", "type": "USP", "adresse": "1 rue Jean Burguet", "code_postal": "33075", "commune": "BORDEAUX", "telephone": "05 56 79 58 40", "departement": "Gironde", "nb_lits": ["A REMPLIR"], "zone_libre": "Présence de bénévoles d'Alliance", "site_internet": "A REMPLIR"},
{"nom": "HOSPITALITE SAINT THOMAS DE VILLENEUVE - USP", "type": "USP", "adresse": "2 rue Hippolyte Fillioux", "code_postal": "35470", "commune": "BAIN DE BRETAGNE", "telephone": "02 99 43 71 40", "departement": "Ille-et-Vilaine", "nb_lits": ["A REMPLIR"], "zone_libre": "Prise en charge ponctuelle par:\r\nKinésithérapeute\r\nErgothérapeute\r\nDiététicienne\r\nAssistante sociale", "site_internet": "A REMPLIR"},
{"nom": "PÔLE SANTÉ LÉONARD DE VINCI - LISP", "type": "LISP", "adresse": "1 avenue du Professeur A. Minkowski", "code_postal": "37170", "commune": "CHAMBRAY-LES-TOURS", "telephone": "02 47 22 21 75", "departement": "Indre-et-Loire", "nb_lits": ["A REMPLIR"], "zone_libre": "18 lits identifiés regroupés au sein d'une même unité.", "site_internet": "A REMPLIR"},
{"nom": "CH DE LUYNES - USP", "type": "USP", "adresse": "Avenue du Clos Mignot", "code_postal": "37230", "commune": "LUYNES", "telephone": "02 47 55 30 30", "departement": "Indre-et-Loire", "nb_lits": ["A REMPLIR"], "zone_libre": null, "site_internet": "A REMPLIR"},
{"nom": "POLYCLINIQUE SAINT-LAURENT - USP", "type": "USP", "adresse": "320 Avenue du Général Patton", "code_postal": "35700", "commune": "RENNES CEDEX", "telephone": "02 99 25 69 85", "departement": "Ille-et-Vilaine", "nb_lits": ["A REMPLIR"], "zone_libre": null, "site_internet": "A REMPLIR"},
{"nom": "CENTRE RÉGIONAL DE GÉRIATRIE - USP", "type": "USP", "adresse": "100 avenue André Bonin", "code_postal": "35135", "commune": "CHANTEPIE", "telephone": "02 99 26 00 59", "departement": "Ille-et-Vilaine", "nb_lits": ["A REMPLIR"], "zone_libre": null, "site_internet": "A REMPLIR"},
{"nom": "POLYCLINIQUE DE BLOIS", "type": "LISP", "adresse": "Rue Florimont", "code_postal": "41000", "commune": "BLOIS", "telephone": "02 54 55 56 26", "departement": "Loir-et-Cher", "nb_lits": ["A REMPLIR"], "zone_libre": "12 lits", "site_internet": "A REMPLIR"},
{"nom": "HÔPITAL ST SEVER", "type": "LISP", "adresse": "3 rue de la Guillerie", "code_postal": "40500", "commune": "SAINT SEVER", "telephone": "05 58 76 45 20", "departement": "Landes", "nb_lits": ["A REMPLIR"], "zone_libre": "3 lits identifiés. psychologue, psychomotricienne, kinesithérapeute, ergotherapeute", "site_internet": "A REMPLIR"},
{"nom": "CH YVES TOURAINE - LISP", "type": "LISP", "adresse": "Le Thomassin", "code_postal": "38480", "commune": "PONT DE BEAUVOISIN", "telephone": "04 76 32 64 63", "departement": "Isère", "nb_lits": ["A REMPLIR"], "zone_libre": null, "site_internet": "A REMPLIR"},
{"nom": "CENTRE MEDICAL ROCHEPLANE FOND. AUDAVIE - LISP", "type": "LISP", "adresse": "6 rue Massenet", "code_postal": "38400", "commune": "St MARTIN d'HERES", "telephone": "04 57 42 40 79", "departement": "Isère", "nb_lits": ["A REMPLIR"], "zone_libre": "15 lits", "site_internet": "A REMPLIR"},
{"nom": "CH LUCIEN HUSSEL - LISP", "type": "LISP", "adresse": "", "code_postal": "38209", "commune": "VIENNE", "telephone": "04 74 31 32 85", "departement": "Isère", "nb_lits": ["A REMPLIR"], "zone_libre": "8 lits", "site_internet": "A REMPLIR"},
{"nom": "CHU - CLINIQUE DE SOINS PALLIATIFS ET DE COORDINATION EN SOINS DE SUPPORT - USP", "type": "USP", "adresse": "Boulevard de la Chantourne", "code_postal": "38043", "commune": "GRENOBLE CEDEX 9", "telephone": "04 76 76 61 27", "departement": "Isère", "nb_lits": ["A REMPLIR"], "zone_libre": "Unité en lien avec l'équipe mobile, toutes deux coordonnées par la clinique.", "site_internet": "A REMPLIR"},
{"nom": "CH ANCENIS - LISP", "type": "LISP", "adresse": "160 rue du Verger", "code_postal": "44150", "commune": "ANCENIS", "telephone": "02 40 09 44 23", "departement": "Loire-Atlantique", "nb_lits": ["A REMPLIR"], "zone_libre": "4 Lits  identifiés", "site_internet": "A REMPLIR"},
{"nom": "CHU  HOPITAL NORD - USP", "type": "USP", "adresse": "NIVEAU 5", "code_postal": "42055", "commune": "SAINT ETIENNE CEDEX 2", "telephone": "04 77 82 81 00", "departement": "Loire", "nb_lits": ["A REMPLIR"], "zone_libre": "Entre 8 et 12 lits. Plusieurs établissements: CCAS, Orpéa, Olcéam", "site_internet": "A REMPLIR"},
{"nom": "CH CHÂTEAUBRIANT - LISP", "type": "LISP", "adresse": "Rue de Verdun", "code_postal": "44146", "commune": "CHATEAUBRIANT", "telephone": "02 40 55 88 19", "departement": "Loire-Atlantique", "nb_lits": ["A REMPLIR"], "zone_libre": "4 Lits identifiés", "site_internet": "A REMPLIR"},
{"nom": "CLINIQUE SAINT AUGUSTIN - LISP", "type": "LISP", "adresse": "78 rue Paul Bellamy", "code_postal": "44000", "commune": "NANTES", "telephone": "02 40 12 30 00", "departement": "Loire-Atlantique", "nb_lits": ["A REMPLIR"], "zone_libre": "4 lits identifiés soins palliatifs au sein du service de médecine", "site_internet": "A REMPLIR"},
{"nom": "HOPITAL LOCAL ANTOINE MOREAU", "type": "LISP", "adresse": "13 rue Saint Laurent", "code_postal": "41800", "commune": "MONTOIRE SUR LOIR", "telephone": "02 54 86 50 00", "departement": "Loir-et-Cher", "nb_lits": ["A REMPLIR"], "zone_libre": null, "site_internet": "A REMPLIR"},
{"nom": "CH DE MONTRICHARD - LISP", "type": "LISP", "adresse": "14 rue des Bois", "code_postal": "41406", "commune": "MONTRICHARD", "telephone": "02 54 75 70 00", "departement": "Loir-et-Cher", "nb_lits": ["A REMPLIR"], "zone_libre": "Reconnaissance de 3 LISP en Mars 2009", "site_internet": "A REMPLIR"},
{"nom": "CH LOIRE VENDÉE OCÉAN - LISP", "type": "LISP", "adresse": "", "code_postal": "44270", "commune": "MACHECOUL", "telephone": "02 40 78 44 73", "departement": "Loire-Atlantique", "nb_lits": ["A REMPLIR"], "zone_libre": null, "site_internet": "A REMPLIR"},
{"nom": "CH LOIRE VENDÉE OCÉAN - LISP", "type": "LISP", "adresse": "", "code_postal": "44270", "commune": "MACHECOUL", "telephone": "02 40 78 44 32", "departement": "Loire-Atlantique", "nb_lits": ["A REMPLIR"], "zone_libre": null, "site_internet": "A REMPLIR"},
{"nom": "CENTRE DE SOINS MEDICAUX ET DE READAPTION-LE BODIO - LISP", "type": "LISP", "adresse": "Le Bodio", "code_postal": "44160", "commune": "PONTCHATEAU", "telephone": "02 40 17 51 00", "departement": "Loire-Atlantique", "nb_lits": ["A REMPLIR"], "zone_libre": "6 lits", "site_internet": "A REMPLIR"},
{"nom": "CHICMT HÔPITAL DE TONNEINS - LISP", "type": "LISP", "adresse": "Cours de l'abbé Lanusse", "code_postal": "47400", "commune": "TONNEINS", "telephone": "05 53 20 31 92", "departement": "Lot-et-Garonne", "nb_lits": ["A REMPLIR"], "zone_libre": null, "site_internet": "A REMPLIR"},
{"nom": "CENTRE CATHERINE DE SIENNE - LISP", "type": "LISP", "adresse": "2 rue Eric Tabarly", "code_postal": "44202", "commune": "NANTES CEDEX 2", "telephone": "02 28 27 20 00", "departement": "Loire-Atlantique", "nb_lits": ["A REMPLIR"], "zone_libre": "14 Lits identifiés\nStagiaires: Infirmières & Aides soignantes (2e et 3e année)", "site_internet": "A REMPLIR"},
{"nom": "CLINIQUE ESQUIROL SAINT HILAIRE - LISP", "type": "LISP", "adresse": "1 rue du Docteur et Madame Delmas", "code_postal": "47000", "commune": "AGEN", "telephone": "05 53 69 96 41", "departement": "Lot-et-Garonne", "nb_lits": ["A REMPLIR"], "zone_libre": "5 lits identifiés en service de médecine polyvalente, 4 ième étage B. \nMédecin et IDE formés et diplomés en SP. Temps partiel Psychologue dans le service, AS, kinésitherapeute.", "site_internet": "A REMPLIR"},
{"nom": "ICO CENTRE RENÉ GAUDUCHEAU", "type": "LISP", "adresse": "Boulevard Jacques Monod", "code_postal": "44805", "commune": "SAINT HERBLAIN CEDEX", "telephone": "02 40 67 99 33", "departement": "Loire-Atlantique", "nb_lits": ["A REMPLIR"], "zone_libre": null, "site_internet": "A REMPLIR"},
{"nom": "CENTRE DE CONVALESCENCE LES SABLONS SSR-SAMEC - LISP", "type": "LISP", "adresse": "19 rue de la Mérie", "code_postal": "45430", "commune": "CHECY", "telephone": "02 38 46 61 60", "departement": "Loiret", "nb_lits": ["A REMPLIR"], "zone_libre": null, "site_internet": "A REMPLIR"},
{"nom": "CH DE NANTES - USP", "type": "USP", "adresse": "Boulevard Jacques Monod", "code_postal": "44800", "commune": "SAINT HERBLAIN", "telephone": "02 53 48 27 31", "departement": "Loire-Atlantique", "nb_lits": ["A REMPLIR"], "zone_libre": "7 hôpitaux sur Nantes", "site_internet": "A REMPLIR"},
{"nom": "HÔPITAL LOCAL CORCOUE", "type": "LISP", "adresse": "23 bel air", "code_postal": "44650", "commune": "CORCOUE SUR LOGNE", "telephone": "02 51 11 65 02", "departement": "Loire-Atlantique", "nb_lits": ["A REMPLIR"], "zone_libre": null, "site_internet": "A REMPLIR"},
{"nom": "CH DE MENDE - LISP", "type": "LISP", "adresse": "7 avenue 8 Mai 1945", "code_postal": "48000", "commune": "MENDE", "telephone": "04 66 49 59 92", "departement": "Lozère", "nb_lits": ["A REMPLIR"], "zone_libre": "5 lits identifiés au sein du service de Médecine Gériatrique", "site_internet": "A REMPLIR"},
{"nom": "HÔPITAL LOCAL FUMEL", "type": "LISP", "adresse": "11 rue Léon Blum", "code_postal": "47500", "commune": "FUMEL CEDEX", "telephone": "05 53 40 54 00", "departement": "Lot-et-Garonne", "nb_lits": ["A REMPLIR"], "zone_libre": "Zone d'intervention Fumel et alentours\nIDE Christine Aldebert", "site_internet": "A REMPLIR"},
{"nom": "CLINIQUE MUTUALISTE DE L'ESTUAIRE - LISP", "type": "LISP", "adresse": "11 boulevard Georges Charpak", "code_postal": "44600", "commune": "SAINT-NAZAIRE", "telephone": "02 72 27 52 52", "departement": "Loire-Atlantique", "nb_lits": ["A REMPLIR"], "zone_libre": "6 lits en soins palliatifs", "site_internet": "A REMPLIR"},
{"nom": "HÔPITAL LOCAL INTERCOMMUNAL DE LA PRESQU'ÎLE-LISP", "type": "LISP", "adresse": "Avenue Pierre de la Bouexière", "code_postal": "44350", "commune": "GUERANDE", "telephone": "02 40 62 66 07", "departement": "Loire-Atlantique", "nb_lits": ["A REMPLIR"], "zone_libre": "En lien avec l'équipe mobile de soins palliatifs du CH de St NAZAIRE. Stagiaires en DU de SP. 6 lits identifiés.", "site_internet": "A REMPLIR"},
{"nom": "POLYCLINIQUE DE LA BAIE", "type": "LISP", "adresse": "1 avenue Du quesnoix", "code_postal": "50300", "commune": "SAINT MARTIN DES CHAMPS", "telephone": "02 33 68 60 15", "departement": "Manche", "nb_lits": ["A REMPLIR"], "zone_libre": "5 lits\n\nrapprochement familial possible", "site_internet": "A REMPLIR"},
{"nom": "HÔPITAL LOCAL CARENTAN", "type": "LISP", "adresse": "Avenue de qui qu'en grogne", "code_postal": "50500", "commune": "CARENTAN", "telephone": "02 33 42 50 57", "departement": "Manche", "nb_lits": ["A REMPLIR"], "zone_libre": "3 lits\n\nsurveillante = Mme Alexandre; infirmières soins palliatifs = Mme St Lô et douleur = Melle Frémy; psychologue = Mme Marguerie", "site_internet": "A REMPLIR"},
{"nom": "HÔPITAL LOCAL DE SAINT -JAMES", "type": "LISP", "adresse": "Rue du mont", "code_postal": "50240", "commune": "SAINT- JAMES", "telephone": "02 33 89 89 17", "departement": "Manche", "nb_lits": ["A REMPLIR"], "zone_libre": "5 lits\nIntervention de bénévoles ASP Sud-Manche", "site_internet": "A REMPLIR"},
{"nom": "HÔPITAL LOCAL DE MORTAIN", "type": "LISP", "adresse": "18 rue de la 30ème division américaine", "code_postal": "50140", "commune": "MORTAIN", "telephone": "02 33 69 21 22", "departement": "Manche", "nb_lits": ["A REMPLIR"], "zone_libre": "3 lits", "site_internet": "A REMPLIR"},
{"nom": "CR DE LUTTE CONTRE CANCER PAUL PAPIN", "type": "LISP", "adresse": "2 rue moll", "code_postal": "49933", "commune": "ANGERS CEDEX 9", "telephone": "02 41 35 27 00", "departement": "Maine-et-Loire", "nb_lits": ["A REMPLIR"], "zone_libre": "8 lits identifiés (trés prochainement ils vont passer à  14)\nPérimètre d'action dans les départements suivant:\n150 km sur le 72\n150 km sur le 53", "site_internet": "A REMPLIR"},
{"nom": "CHU ANGERS - LISP", "type": "LISP", "adresse": "4 rue Larrey", "code_postal": "49933", "commune": "ANGERS CEDEX 09", "telephone": "02 41 35 56 96", "departement": "Maine-et-Loire", "nb_lits": ["A REMPLIR"], "zone_libre": "5 lits identifiés + EMSP qui intervient au sein de l'établissement et dans tout le département ( domicile, maison de retraite... + Beaucoup de formation)", "site_internet": "A REMPLIR"},
{"nom": "CHU ANGERS - USP", "type": "USP", "adresse": "2 Allée des Arcades", "code_postal": "49933", "commune": "ANGERS CEDEX 09", "telephone": "02 41 35 36 13", "departement": "Maine-et-Loire", "nb_lits": ["A REMPLIR"], "zone_libre": null, "site_internet": "A REMPLIR"},
{"nom": "CH DE CHOLET - LISP", "type": "LISP", "adresse": "1 rue Marengo", "code_postal": "49325", "commune": "CHOLET CEDEX", "telephone": "02 41 49 62 70", "departement": "Maine-et-Loire", "nb_lits": ["A REMPLIR"], "zone_libre": "3 lits\n. stagiaires = psy, inf, AS", "site_internet": "A REMPLIR"},
{"nom": "CH SÉBASTOPOL - USP", "type": "USP", "adresse": "48 rue de Sébastopol", "code_postal": "51092", "commune": "REIMS CEDEX", "telephone": "03 26 78 46 42", "departement": "Marne", "nb_lits": ["A REMPLIR"], "zone_libre": "Unité de 14 lits, locaux sur le site de l'Hôpital Sébastopol", "site_internet": "A REMPLIR"},
{"nom": "HÔPITAL LOCAL VILLEDIEU", "type": "LISP", "adresse": "12 rue Jean Gasté", "code_postal": "50800", "commune": "VILLEDIEU", "telephone": "02 33 91 43 10", "departement": "Manche", "nb_lits": ["A REMPLIR"], "zone_libre": "3 lits", "site_internet": "A REMPLIR"},
{"nom": "HOPITAL LOCAL DE JOSSELIN", "type": "LISP", "adresse": "21 rue Saint-Jacques", "code_postal": "56120", "commune": "JOSSELIN", "telephone": "02 97 73 13 15", "departement": "Morbihan", "nb_lits": ["A REMPLIR"], "zone_libre": "5 lits dédiés en SP dans service de médecine.", "site_internet": "A REMPLIR"},
{"nom": "ASSOCIATION HOSPITALIÈRE DE JOEUF - LISP", "type": "LISP", "adresse": "26 rue Saint-Robert", "code_postal": "54240", "commune": "JOEUF", "telephone": "03 82 47 53 53", "departement": "Meurthe-et-Moselle", "nb_lits": ["A REMPLIR"], "zone_libre": "5 lits identifiés répartis en 3 à l'hôpital et 2 à domicile.", "site_internet": "A REMPLIR"},
{"nom": "CH  ST NICOLAS DE PORT - LISP", "type": "LISP", "adresse": "Rue du Jeu de Paume", "code_postal": "54210", "commune": "SAINT NICOLAS DE PORT", "telephone": "03 83 18 60 60", "departement": "Meurthe-et-Moselle", "nb_lits": ["A REMPLIR"], "zone_libre": "5 lits identifiés", "site_internet": "A REMPLIR"},
{"nom": "HÔPITAL SAINT-JULIEN CHU NANCY - USP", "type": "USP", "adresse": "1 rue Foller", "code_postal": "54035", "commune": "NANCY CEDEX", "telephone": "03 83 85 11 32", "departement": "Meurthe-et-Moselle", "nb_lits": ["A REMPLIR"], "zone_libre": null, "site_internet": "A REMPLIR"},
{"nom": "HL DU SUD-OUEST MAYENNAIS", "type": "LISP", "adresse": "28 rue Daudier", "code_postal": "53800", "commune": "RENAZE", "telephone": "02 43  09 27 00", "departement": "Mayenne", "nb_lits": ["A REMPLIR"], "zone_libre": "2 lits dédiés\nintervient à  20 km sur la partie limitrophe du 49", "site_internet": "A REMPLIR"},
{"nom": "HL ERNÉE", "type": "LISP", "adresse": "20 avenue de Paris", "code_postal": "53500", "commune": "ERNEE", "telephone": "02 43 08 31 70", "departement": "Mayenne", "nb_lits": ["A REMPLIR"], "zone_libre": "5 lits identifiés\n. Intervient sur 23 km sur la partie limitrophe du 35", "site_internet": "A REMPLIR"},
{"nom": "CH HAUT ANJOU - LISP", "type": "LISP", "adresse": "1 Quai Georges Lefèvre", "code_postal": "53200", "commune": "CHATEAU GONTIER", "telephone": "02 43 09 34 14", "departement": "Mayenne", "nb_lits": ["A REMPLIR"], "zone_libre": "6 lits identifiés dont 2 sur Segré et 4 sur Château Gontier", "site_internet": "A REMPLIR"},
{"nom": "CH D'ARGONNE - LISP", "type": "LISP", "adresse": "1 allée de la cour d'honneur", "code_postal": "51800", "commune": "SAINTE-MENEHOULD", "telephone": "03 26 60 15 12", "departement": "Marne", "nb_lits": ["A REMPLIR"], "zone_libre": null, "site_internet": "A REMPLIR"},
{"nom": "CH BASSE VILAINE - LISP", "type": "LISP", "adresse": "2 rue de la Piscine", "code_postal": "56130", "commune": "NIVILLAC", "telephone": "02 23 10 10 10", "departement": "Morbihan", "nb_lits": ["A REMPLIR"], "zone_libre": null, "site_internet": "A REMPLIR"},
{"nom": "CLINIQUE DES AUGUSTINES - USP", "type": "USP", "adresse": "4 faubourg St Michel", "code_postal": "56140", "commune": "MALESTROIT", "telephone": "02 97 73 18 88", "departement": "Morbihan", "nb_lits": ["A REMPLIR"], "zone_libre": "Notre unité de soins palliatifs accueille des patients en fin de vie complexe et propose également des séjours de répit pour l’équilibration des symptômes d’inconfort en phase palliative.", "site_internet": "A REMPLIR"},
{"nom": "MAISON DE REPOS", "type": "LISP", "adresse": "67 rue des alliés", "code_postal": "57740", "commune": "LONGEVILLE LES ST AVOLD", "telephone": "03 87 91 76 00", "departement": "Moselle", "nb_lits": ["A REMPLIR"], "zone_libre": "10 lits identifiés", "site_internet": "A REMPLIR"},
{"nom": "CENTRE DE MOYEN SÉJOUR-CONVALESCENCE - LISP", "type": "LISP", "adresse": "", "code_postal": "57220", "commune": "CHARLEVILLE-SOUS-BOIS", "telephone": "03 87 79 13 52", "departement": "Moselle", "nb_lits": ["A REMPLIR"], "zone_libre": "6 lits identifiés", "site_internet": "A REMPLIR"},
{"nom": "CHR METZ-THIONVILLE - USP", "type": "USP", "adresse": "27 avenue de Plantières", "code_postal": "57070", "commune": "METZ", "telephone": "03 87 56 24 72", "departement": "Moselle", "nb_lits": ["A REMPLIR"], "zone_libre": "Ergo : 0.75 ; Kiné : 0.5 ; Adr post : USP - Hôp Legouest/Hôp. Mercy - 1, allée du Château - CS 45001 - 57085 METZ CEDEX 03\r\n\r\n", "site_internet": "A REMPLIR"},
{"nom": "CH DE PORT LOUIS - LISP", "type": "LISP", "adresse": "8 rue de Gavre", "code_postal": "56290", "commune": "PORT-LOUIS", "telephone": "02 97 82 28 28", "departement": "Morbihan", "nb_lits": ["A REMPLIR"], "zone_libre": "5 Lits\n\nRayon d'intervention cantonnal", "site_internet": "A REMPLIR"},
{"nom": "CLINIQUE OCÉANE - LISP", "type": "LISP", "adresse": "11 rue du docteur Audic", "code_postal": "56000", "commune": "VANNES", "telephone": "06 15 51 24 61", "departement": "Morbihan", "nb_lits": ["A REMPLIR"], "zone_libre": null, "site_internet": "A REMPLIR"},
{"nom": "CH DU FAOUET - LISP", "type": "LISP", "adresse": "36 rue des bergeres", "code_postal": "56320", "commune": "LE FAOUET", "telephone": "02 97 23 08 99", "departement": "Morbihan", "nb_lits": ["A REMPLIR"], "zone_libre": null, "site_internet": "A REMPLIR"},
{"nom": "ÉTABLISSEMENT DE SANTÉ LE DIVIT - USP", "type": "USP", "adresse": "18 rue du Divit", "code_postal": "56274", "commune": "PLOEMEUR", "telephone": "02 97 87 30 48", "departement": "Morbihan", "nb_lits": ["A REMPLIR"], "zone_libre": null, "site_internet": "A REMPLIR"},
{"nom": "CENTRE OSCAR LAMBRET - USP", "type": "USP", "adresse": "3 rue Frédéric Combemale", "code_postal": "59020", "commune": "LILLE CEDEX", "telephone": "03 20 29 59 59", "departement": "Nord", "nb_lits": ["A REMPLIR"], "zone_libre": "11 lits identifiés en SP.", "site_internet": "A REMPLIR"},
{"nom": "POLYCLINIQUE DU BOIS - USP", "type": "USP", "adresse": "44 avenue Max Dormoy", "code_postal": "59000", "commune": "LILLE", "telephone": "03 20 22 72 20", "departement": "Nord", "nb_lits": ["A REMPLIR"], "zone_libre": "Dr Madelaine Valentine\r\nDr Charlotte Decherf", "site_internet": "A REMPLIR"},
{"nom": "CH TOURCOING - USP", "type": "USP", "adresse": "155 rue du Président Coty", "code_postal": "59208", "commune": "TOURCOING CEDEX", "telephone": "03 20 69 44 90", "departement": "Nord", "nb_lits": ["A REMPLIR"], "zone_libre": null, "site_internet": "A REMPLIR"},
{"nom": "HOPITAL PIERRE BEREGOVOY - USP", "type": "USP", "adresse": "1 boulevard de l'hôpital", "code_postal": "58033", "commune": "NEVERS", "telephone": "03 86 93 81 19", "departement": "Nièvre", "nb_lits": ["A REMPLIR"], "zone_libre": null, "site_internet": "A REMPLIR"},
{"nom": "MAISON MÉDICALE JEAN XXIII - USP", "type": "USP", "adresse": "3 place Erasme de Rotterdam", "code_postal": "59465", "commune": "LOMME CEDEX", "telephone": "03 20 88 81 55", "departement": "Nord", "nb_lits": ["A REMPLIR"], "zone_libre": "Médecins de soins palliatifs : Dr Vincent BERRY, Dr Margaux DUPONT-VERCAMBRE", "site_internet": "A REMPLIR"},
{"nom": "CH BAILLEUL - LISP", "type": "LISP", "adresse": "40 rue de Lille", "code_postal": "59270", "commune": "BAILLEUL", "telephone": "03 28 43 70 21", "departement": "Nord", "nb_lits": ["A REMPLIR"], "zone_libre": "Long séjour - Travaille avec EMSP", "site_internet": "A REMPLIR"},
{"nom": "HÔPITAL MARITIME - USP", "type": "USP", "adresse": "Boulevard Vancauwenberghe", "code_postal": "59123", "commune": "ZUYDCOOTE", "telephone": "03 28 26 20 78", "departement": "Nord", "nb_lits": ["A REMPLIR"], "zone_libre": "Présence de bénévoles d'AMAVI", "site_internet": "A REMPLIR"},
{"nom": "GH DE LOOS-HAUBOURDIN - USP", "type": "USP", "adresse": "20 rue Henri Barbusse", "code_postal": "59120", "commune": "LOOS", "telephone": "03 62 21 04 90", "departement": "Nord", "nb_lits": ["A REMPLIR"], "zone_libre": "10 lits + 1 chambre d'accompagnant ", "site_internet": "A REMPLIR"},
{"nom": "CH DE ROUBAIX - USP", "type": "USP", "adresse": "31 Rue de Barbieux", "code_postal": "59100", "commune": "ROUBAIX", "telephone": "03 20 99 32 03", "departement": "Nord", "nb_lits": ["A REMPLIR"], "zone_libre": "Communauté urbaine", "site_internet": "A REMPLIR"},
{"nom": "CHRU LILLE - USP", "type": "USP", "adresse": "2 avenue Oscar Lambret", "code_postal": "59037", "commune": "LILLE CEDEX", "telephone": "03 20 44 47 61", "departement": "Nord", "nb_lits": ["A REMPLIR"], "zone_libre": null, "site_internet": "A REMPLIR"},
{"nom": "CH SAINT-VINCENT DE PAUL - USP", "type": "USP", "adresse": "Boulevard de Belfort", "code_postal": "59020", "commune": "LILLE", "telephone": "03 20 87 48 65", "departement": "Nord", "nb_lits": ["A REMPLIR"], "zone_libre": "Groupe hospitalier de l'institut catholique de Lille, 12 lits d'USP, présence de bénévoles", "site_internet": "A REMPLIR"},
{"nom": "POLYCLINIQUE VAUBAN - USP", "type": "USP", "adresse": "10 avenue Vauban", "code_postal": "59300", "commune": "VALENCIENNES", "telephone": "03 27 32 58 70", "departement": "Nord", "nb_lits": ["A REMPLIR"], "zone_libre": "6 Lits de SP. Psychologue ; Kiné ; Socio esthéticienne ; Bénévoles.", "site_internet": "A REMPLIR"},
{"nom": "CH VALENCIENNES - USP", "type": "USP", "adresse": "Avenue Désandrouins", "code_postal": "59300", "commune": "VALENCIENNES", "telephone": "03 27 14 31 98", "departement": "Nord", "nb_lits": ["A REMPLIR"], "zone_libre": null, "site_internet": "A REMPLIR"},
{"nom": "CLINIQUE SAINT ROCH - USP", "type": "USP", "adresse": "48 chemin de la Motte", "code_postal": "59870", "commune": "MARCHIENNES", "telephone": "03 27 99 57 57", "departement": "Nord", "nb_lits": ["A REMPLIR"], "zone_libre": "10 lits", "site_internet": "A REMPLIR"},
{"nom": "POLYCLINIQUE DE GRANDE SYNTHE - USP", "type": "USP", "adresse": "Avenue de la Polyclinique", "code_postal": "59760", "commune": "GRANDE SYNTHE", "telephone": "03 28 58 60 00", "departement": "Nord", "nb_lits": ["A REMPLIR"], "zone_libre": null, "site_internet": "A REMPLIR"},
{"nom": "HÔPITAL LÉON SCHWARTZENBERG", "type": "LISP", "adresse": "90 Rue du 8 Mai 1945", "code_postal": "59530", "commune": "LE  QUESNOY", "telephone": "03 27 14 92 51", "departement": "Nord", "nb_lits": ["A REMPLIR"], "zone_libre": "5 Lits en service de médecine gériatrique", "site_internet": "A REMPLIR"},
{"nom": "CHI DE WASQUEHAL - LISP", "type": "LISP", "adresse": "Rue Salvador Allende", "code_postal": "59444", "commune": "WASQUEHAL CEDEX", "telephone": "03 20 89 65 65", "departement": "Nord", "nb_lits": ["A REMPLIR"], "zone_libre": null, "site_internet": "A REMPLIR"},
{"nom": "CLINIQUE SAINT-ROCH - USP", "type": "USP", "adresse": "128 allée Saint-Roch", "code_postal": "59402", "commune": "CAMBRAI", "telephone": "03 27 73 00 00", "departement": "Nord", "nb_lits": ["A REMPLIR"], "zone_libre": "Présence de bénévoles de l'ASP Cambrésis", "site_internet": "A REMPLIR"},
{"nom": "CH DU PAYS D'AVESNES - USP", "type": "USP", "adresse": "Route d'Haut-Lieu", "code_postal": "59363", "commune": "AVESNES SUR HELPE CEDEX", "telephone": "03 27 56 55 77", "departement": "Nord", "nb_lits": ["A REMPLIR"], "zone_libre": "Consultations externes pour la gestion des symptômes présence de bénévoles de l'asso. Le Jardin d'Emeraude rattachée à  Omega-Lille.", "site_internet": "A REMPLIR"},
{"nom": "CLINIQUE TEISSIER - LISP", "type": "LISP", "adresse": "118 avenue Desandrouins", "code_postal": "59300", "commune": "VALENCIENNES", "telephone": "03 27 14 24 34", "departement": "Nord", "nb_lits": ["A REMPLIR"], "zone_libre": "7 lits identifiés, service pneumologie", "site_internet": "A REMPLIR"},
{"nom": "GHPSO SITE DE SENLIS - USP", "type": "USP", "adresse": "Avenue Paul Rougé", "code_postal": "60300", "commune": "SENLIS", "telephone": "03 44 21 70 90", "departement": "Oise", "nb_lits": ["A REMPLIR"], "zone_libre": null, "site_internet": "A REMPLIR"},
{"nom": "CH DE COMPIÈGNE-NOYON - USP", "type": "USP", "adresse": "8 Avenue Henri Adnot", "code_postal": "60321", "commune": "COMPIEGNE", "telephone": "03 44 23 67 90", "departement": "Oise", "nb_lits": ["A REMPLIR"], "zone_libre": null, "site_internet": "A REMPLIR"},
{"nom": "CH BEAUVAIS - USP", "type": "USP", "adresse": "Avenue Léon Blum", "code_postal": "60021", "commune": "BEAUVAIS CEDEX", "telephone": "03 44 11 26 86", "departement": "Oise", "nb_lits": ["A REMPLIR"], "zone_libre": null, "site_internet": "A REMPLIR"},
{"nom": "CENTRE MÉDICAL DE CEYRAT", "type": "LISP", "adresse": "27 avenue des Cottages", "code_postal": "63122", "commune": "CEYRAT", "telephone": "04 73 60 81 81", "departement": "Puy-de-Dôme", "nb_lits": ["A REMPLIR"], "zone_libre": null, "site_internet": "A REMPLIR"},
{"nom": "CENTRE D'HOSPITALISATION DE CHANAT - LISP", "type": "LISP", "adresse": "", "code_postal": "63530", "commune": "CHANAT LA MOUTEYRE", "telephone": "04 73 62 76 95", "departement": "Puy-de-Dôme", "nb_lits": ["A REMPLIR"], "zone_libre": null, "site_internet": "A REMPLIR"},
{"nom": "CHU CLERMONT-FERRAND HÔPITAL NORD - USP", "type": "USP", "adresse": "Route de chateaugay", "code_postal": "63118", "commune": "CEBAZAT", "telephone": "04 73 75 09 60", "departement": "Puy-de-Dôme", "nb_lits": ["A REMPLIR"], "zone_libre": null, "site_internet": "A REMPLIR"},
{"nom": "AMÉLIE LOUTRE - USP", "type": "USP", "adresse": "7 rue Caudron", "code_postal": "62700", "commune": "BRUAY-LA-BUISSIERE", "telephone": "03 21 61 54 00", "departement": "Pas-de-Calais", "nb_lits": ["A REMPLIR"], "zone_libre": "Interventions de bénévoles de l'ASP-Gilbert Denisselle", "site_internet": "A REMPLIR"},
{"nom": "SSR CH BAPAUME", "type": "LISP", "adresse": "55 rue de la République", "code_postal": "62450", "commune": "BAPAUME", "telephone": "03 21 16 07 36", "departement": "Pas-de-Calais", "nb_lits": ["A REMPLIR"], "zone_libre": null, "site_internet": "A REMPLIR"}
]